NORAD_CAT_ID,OBJECT_NAME,OBJECT_TYPE,EPOCH,MEAN_MOTION,ECCENTRICITY,INCLINATION,RA_OF_ASC_NODE,ARG_OF_PERICENTER,MEAN_ANOMALY,BSTAR,MEAN_MOTION_DOT,MEAN_MOTION_DDOT,TLE_LINE0,TLE_LINE1,TLE_LINE2,SEMIMAJOR_AXIS,PERIOD,APOGEE,PERIGEE,DECAYED
50823.0,STARLINK-3334,PAYLOAD,2022-07-06 10:06:37,15.08832806,0.0002718,53.2196,74.7882,74.5147,285.6145,0.00014134,1.961e-05,0.0,0 STARLINK-3334,1 50823U 22001W   22187.42127183  .00001961  00000-0  14134-3 0  9994,2 50823  53.2196  74.7882 0002718  74.5147 285.6145 15.08832806 27773,6917.901999999999,95.438,541.648,537.887,0.0
50823.0,STARLINK-3334,PAYLOAD,2022-07-06 19:38:56,15.08834513,0.0002736,53.2198,73.0041,75.1608,284.9687,0.00012583,1.714e-05,0.0,0 STARLINK-3334,1 50823U 22001W   22187.81871323  .00001714  00000-0  12583-3 0  9991,2 50823  53.2198  73.0041 0002736  75.1608 284.9687 15.08834513 29113,6917.897,95.438,541.655,537.869,0.0
50823.0,STARLINK-3334,PAYLOAD,2022-07-06 22:49:43,15.08831077,0.0002762,53.2199,72.4096,75.0844,285.0454,9.0746e-05,1.156e-05,0.0,0 STARLINK-3334,1 50823U 22001W   22187.95119723  .00001156  00000-0  90746-4 0  9993,2 50823  53.2199  72.4096 0002762  75.0844 285.0454 15.08831077 27852,6917.908,95.438,541.683,537.862,0.0
50823.0,STARLINK-3334,PAYLOAD,2022-07-07 02:00:29,15.08830374,0.0002657,53.2198,71.8146,76.1143,284.0144,5.7978e-05,6.34e-06,0.0,0 STARLINK-3334,1 50823U 22001W   22188.08367919  .00000634  00000-0  57978-4 0  9990,2 50823  53.2198  71.8146 0002657  76.1143 284.0144 15.08830374 29156,6917.91,95.438,541.613,537.937,0.0
50823.0,STARLINK-3334,PAYLOAD,2022-07-07 19:29:43,15.08841427,0.0002658,53.2198,68.5439,77.2112,282.9177,7.0713e-05,8.37e-06,0.0,0 STARLINK-3334,1 50823U 22001W   22188.81231434  .00000837  00000-0  70713-4 0  9990,2 50823  53.2198  68.5439 0002658  77.2112 282.9177 15.08841427 29269,6917.876,95.437,541.58,537.9019999999998,0.0
50823.0,STARLINK-3334,PAYLOAD,2022-07-07 21:05:06,15.08842833,0.0002672,53.2198,68.2465,77.5158,282.6133,8.0282e-05,9.9e-06,0.0,0 STARLINK-3334,1 50823U 22001W   22188.87855320  .00000990  00000-0  80282-4 0  9994,2 50823  53.2198  68.2465 0002672  77.5158 282.6133 15.08842833 27993,6917.871999999999,95.437,541.585,537.888,0.0
50823.0,STARLINK-3334,PAYLOAD,2022-07-08 01:51:16,15.08847467,0.000266,53.2197,67.3542,77.5337,282.5953,8.4122e-05,1.051e-05,0.0,0 STARLINK-3334,1 50823U 22001W   22189.07726976  .00001051  00000-0  84122-4 0  9997,2 50823  53.2197  67.3542 0002660  77.5337 282.5953 15.08847467 28026,6917.858,95.437,541.563,537.882,0.0
50823.0,STARLINK-3334,PAYLOAD,2022-07-08 20:55:52,15.08853118,0.0002615,53.2199,63.7865,77.2896,282.8389,0.00020516,2.979e-05,0.0,0 STARLINK-3334,1 50823U 22001W   22189.87213668  .00002979  00000-0  20516-3 0  9990,2 50823  53.2199  63.7865 0002615  77.2896 282.8389 15.08853118 29424,6917.84,95.437,541.514,537.896,0.0
50823.0,STARLINK-3334,PAYLOAD,2022-07-09 08:03:34,15.08858685,0.0002627,53.2192,61.705,77.9042,282.2244,0.00022305,3.265e-05,0.0,0 STARLINK-3334,1 50823U 22001W   22190.33581501  .00003265  00000-0  22305-3 0  9994,2 50823  53.2192  61.7050 0002627  77.9042 282.2244 15.08858685 28218,6917.823,95.436,541.506,537.871,0.0
50823.0,STARLINK-3334,PAYLOAD,2022-07-09 14:25:06,15.08857212,0.0002617,53.2198,60.5202,78.46,281.6686,0.00015666,2.207e-05,0.0,0 STARLINK-3334,1 50823U 22001W   22190.60077280  .00002207  00000-0  15666-3 0  9995,2 50823  53.2198  60.5202 0002617  78.4600 281.6686 15.08857212 28257,6917.828,95.436,541.503,537.882,0.0
50823.0,STARLINK-3334,PAYLOAD,2022-07-10 01:32:50,15.08821568,0.0001915,53.2193,58.4348,77.7799,282.3408,-0.00053848,-8.844e-05,0.0,0 STARLINK-3334,1 50823U 22001W   22191.06446881 -.00008844  00000-0 -53848-3 0  9992,2 50823  53.2193  58.4348 0001915  77.7799 282.3408 15.08821568 29605,6917.937,95.439,541.127,538.477,0.0
50823.0,STARLINK-3334,PAYLOAD,2022-07-10 07:54:24,15.08780573,0.0002628,53.2196,57.246,79.6367,280.4921,-0.0011388,-0.00018338,0.0,0 STARLINK-3334,1 50823U 22001W   22191.32945270 -.00018338  00000-0 -11388-2 0  9998,2 50823  53.2196  57.2460 0002628  79.6367 280.4921 15.08780573 29647,6918.062,95.441,541.745,538.109,0.0
50823.0,STARLINK-3334,PAYLOAD,2022-07-10 15:51:20,15.08814603,0.0002136,53.2198,55.7598,80.5631,279.5602,-0.00025758,-4.383e-05,0.0,0 STARLINK-3334,1 50823U 22001W   22191.66065012 -.00004383  00000-0 -25758-3 0  9994,2 50823  53.2198  55.7598 0002136  80.5631 279.5602 15.08814603 29695,6917.958000000001,95.439,541.3009999999998,538.345,0.0
50823.0,STARLINK-3334,PAYLOAD,2022-07-10 23:48:15,15.08830838,0.000199,53.2192,54.2715,80.2435,279.8781,3.4886e-05,2.67e-06,0.0,0 STARLINK-3334,1 50823U 22001W   22191.99184517  .00000267  00000-0  34886-4 0  9990,2 50823  53.2192  54.2715 0001990  80.2435 279.8781 15.08830838 29745,6917.908,95.438,541.15,538.3969999999998,0.0
50823.0,STARLINK-3334,PAYLOAD,2022-07-11 20:28:16,15.08837142,0.0001483,53.2188,50.4056,77.8222,282.2936,0.00058433,9.023e-05,0.0,0 STARLINK-3334,1 50823U 22001W   22192.85297122  .00009023  00000-0  58433-3 0  9995,2 50823  53.2188  50.4056 0001483  77.8222 282.2936 15.08837142 28596,6917.889,95.438,540.78,538.7280000000002,0.0
50823.0,STARLINK-3334,PAYLOAD,2022-07-12 07:35:58,15.08855667,0.0001730999999999,53.2196,48.325,80.5635,279.5553,0.0009008,0.00014083,0.0,0 STARLINK-3334,1 50823U 22001W   22193.31664932  .00014083  00000-0  90080-3 0  9990,2 50823  53.2196  48.3250 0001731  80.5635 279.5553 15.08855667 29948,6917.833000000001,95.437,540.895,538.5,0.0
50823.0,STARLINK-3334,PAYLOAD,2022-07-12 20:19:02,15.0886077,0.000152,53.2189,45.9457,83.6068,276.5097,0.00034456,5.203e-05,0.0,0 STARLINK-3334,1 50823U 22001W   22193.84656010  .00005203  00000-0  34456-3 0  9995,2 50823  53.2189  45.9457 0001520  83.6068 276.5097 15.08860770 28740,6917.816999999999,95.436,540.7330000000002,538.63,0.0
50823.0,STARLINK-3334,PAYLOAD,2022-07-13 13:48:15,15.08872067,0.0001349,53.218,42.6761,79.4799,280.6345,0.00028431,4.244e-05,0.0,0 STARLINK-3334,1 50823U 22001W   22194.57518476  .00004244  00000-0  28431-3 0  9999,2 50823  53.2180  42.6761 0001349  79.4799 280.6345 15.08872067 30136,6917.781999999997,95.436,540.581,538.714,0.0
50823.0,STARLINK-3334,PAYLOAD,2022-07-13 20:09:48,15.08849881,0.0001317,53.2186,41.485,76.0051,284.1087,-0.00010074,-1.891e-05,0.0,0 STARLINK-3334,1 50823U 22001W   22194.84014998 -.00001891  00000-0 -10074-3 0  9990,2 50823  53.2186  41.4850 0001317  76.0051 284.1087 15.08849881 30171,6917.85,95.437,540.626,538.804,0.0
50823.0,STARLINK-3334,PAYLOAD,2022-07-14 12:03:40,15.08835627,0.0001375999999999,53.2187,38.5114,77.3802,282.7344,-0.00024913,-4.25e-05,0.0,0 STARLINK-3334,1 50823U 22001W   22195.50255472 -.00004250  00000-0 -24913-3 0  9997,2 50823  53.2187  38.5114 0001376  77.3802 282.7344 15.08835627 30279,6917.894,95.438,540.711,538.807,0.0
50823.0,STARLINK-3334,PAYLOAD,2022-07-14 20:00:36,15.08838944,0.0001393,53.2203,37.0242,84.8062,275.3089,-8.1714e-05,-1.588e-05,0.0,0 STARLINK-3334,1 50823U 22001W   22195.83376071 -.00001588  00000-0 -81714-4 0  9996,2 50823  53.2203  37.0242 0001393  84.8062 275.3089 15.08838944 29046,6917.884,95.438,540.712,538.785,0.0
50823.0,STARLINK-3334,PAYLOAD,2022-07-15 13:29:50,15.08856872,0.0001296,53.2204,33.7535,80.2041,279.9098,-0.0001373,-2.473e-05,0.0,0 STARLINK-3334,1 50823U 22001W   22196.56238836 -.00002473  00000-0 -13730-3 0  9999,2 50823  53.2204  33.7535 0001296  80.2041 279.9098 15.08856872 30439,6917.829000000002,95.436,540.59,538.797,0.0
50823.0,STARLINK-3334,PAYLOAD,2022-07-15 19:51:22,15.08845453,0.0001367,53.2204,32.5643,81.0384,279.0763,0.00014761,2.062e-05,0.0,0 STARLINK-3334,1 50823U 22001W   22196.82734809  .00002062  00000-0  14761-3 0  9996,2 50823  53.2204  32.5643 0001367  81.0384 279.0763 15.08845453 29198,6917.864000000001,95.437,540.674,538.783,0.0
50823.0,STARLINK-3334,PAYLOAD,2022-07-16 13:20:37,15.08837959,0.0001308,53.22,29.294,80.0947,280.0193,0.00017059,2.428e-05,0.0,0 STARLINK-3334,1 50823U 22001W   22197.55599407  .00002428  00000-0  17059-3 0  9999,2 50823  53.2200  29.2940 0001308  80.0947 280.0193 15.08837959 30582,6917.887,95.438,540.656,538.847,0.0
50823.0,STARLINK-3334,PAYLOAD,2022-07-16 19:42:10,15.088345,0.0001273,53.2199,28.1046,80.1688,279.9448,0.00010781,1.428e-05,0.0,0 STARLINK-3334,1 50823U 22001W   22197.82095859  .00001428  00000-0  10781-3 0  9995,2 50823  53.2199  28.1046 0001273  80.1688 279.9448 15.08834500 29349,6917.897,95.438,540.643,538.882,0.0
50823.0,STARLINK-3334,PAYLOAD,2022-07-16 22:52:57,15.08834113,0.0001245,53.2201,27.5099,79.5331,280.5802,0.00010666,1.41e-05,0.0,0 STARLINK-3334,1 50823U 22001W   22197.95343945  .00001410  00000-0  10666-3 0  9994,2 50823  53.2201  27.5099 0001245  79.5331 280.5802 15.08834113 30647,6917.898,95.438,540.625,538.9019999999998,0.0
50823.0,STARLINK-3334,PAYLOAD,2022-07-17 05:14:29,15.08839589,0.00013,53.2203,26.321,79.2635,280.8504,9.1338e-05,1.166e-05,0.0,0 STARLINK-3334,1 50823U 22001W   22198.21839683  .00001166  00000-0  91338-4 0  9997,2 50823  53.2203  26.3210 0001300  79.2635 280.8504 15.08839589 29403,6917.882,95.438,540.646,538.847,0.0
50823.0,STARLINK-3334,PAYLOAD,2022-07-17 19:32:57,15.08836274,0.0001353,53.2196,23.6444,79.4985,280.6159,-0.00011793,-2.164e-05,0.0,0 STARLINK-3334,1 50823U 22001W   22198.81455612 -.00002164  00000-0 -11793-3 0  9996,2 50823  53.2196  23.6444 0001353  79.4985 280.6159 15.08836274 29492,6917.892,95.438,540.693,538.821,0.0
50823.0,STARLINK-3334,PAYLOAD,2022-07-18 05:05:16,15.08840484,0.0001385999999999,53.2209,21.8601,78.1267,281.9881,1.4137e-05,-6.3e-07,0.0,0 STARLINK-3334,1 50823U 22001W   22199.21199792 -.00000063  00000-0  14137-4 0  9996,2 50823  53.2209  21.8601 0001386  78.1267 281.9881 15.08840484 30831,6917.879,95.438,540.703,538.785,0.0
